{
  "type": "FeatureCollection",
  "features": [
    {
      "type": "Feature",
      "properties": {
        "norad_id": 41581,
        "name": "INTELSAT 31 (IS-31)",
        "group": "intelsat",
        "lat": -0.027582808920850403,
        "lon": -160.52976283281748,
        "alt_km": 35778.26158449173,
        "timestamp": "2025-12-06T14:35:36.795301+00:00",
        "meta_object_name": "INTELSAT 31 (IS-31)",
        "meta_object_id": "2016-035A",
        "meta_epoch": "2025-12-06T00:08:38.725728",
        "meta_mean_motion": 1.00270089,
        "meta_eccentricity": 0.00020938,
        "meta_inclination": 0.0178,
        "meta_ra_of_asc_node": 271.9623,
        "meta_arg_of_pericenter": 306.8625,
        "meta_mean_anomaly": 123.3333,
        "meta_ephemeris_type": 0,
        "meta_classification_type": "U",
        "meta_norad_cat_id": 41581,
        "meta_element_set_no": 999,
        "meta_rev_at_epoch": 3474,
        "meta_bstar": 0,
        "meta_mean_motion_dot": -1.42e-06,
        "meta_mean_motion_ddot": 0,
        "tle_line1": "1 41581U 16035A   25340.00600377 -.00000142  00000+0  00000+0 0  9997",
        "tle_line2": "2 41581   0.0178 271.9623 0002093 306.8625 123.3333  1.00270089 34744"
      },
      "geometry": {
        "type": "Point",
        "coordinates": [
          -160.52976283281748,
          -0.027582808920850403
        ]
      }
    },
    {
      "type": "Feature",
      "properties": {
        "norad_id": 41747,
        "name": "INTELSAT 36 (IS-36)",
        "group": "intelsat",
        "lat": 0.008412528595011055,
        "lon": 3.0817418028045203,
        "alt_km": 35778.973368065206,
        "timestamp": "2025-12-06T14:35:36.795313+00:00",
        "meta_object_name": "INTELSAT 36 (IS-36)",
        "meta_object_id": "2016-053A",
        "meta_epoch": "2025-12-05T21:26:38.561568",
        "meta_mean_motion": 1.00280112,
        "meta_eccentricity": 0.00021281,
        "meta_inclination": 0.0114,
        "meta_ra_of_asc_node": 359.9271,
        "meta_arg_of_pericenter": 305.4208,
        "meta_mean_anomaly": 159.7561,
        "meta_ephemeris_type": 0,
        "meta_classification_type": "U",
        "meta_norad_cat_id": 41747,
        "meta_element_set_no": 999,
        "meta_rev_at_epoch": 3401,
        "meta_bstar": 0,
        "meta_mean_motion_dot": -1.7e-07,
        "meta_mean_motion_ddot": 0,
        "tle_line1": "1 41747U 16053A   25339.89350187 -.00000017  00000+0  00000+0 0  9998",
        "tle_line2": "2 41747   0.0114 359.9271 0002128 305.4208 159.7561  1.00280112 34019"
      },
      "geometry": {
        "type": "Point",
        "coordinates": [
          3.0817418028045203,
          0.008412528595011055
        ]
      }
    },
    {
      "type": "Feature",
      "properties": {
        "norad_id": 41945,
        "name": "INTELSAT 32E (IS-32E)",
        "group": "intelsat",
        "lat": -0.02039026921888515,
        "lon": -108.6459939635975,
        "alt_km": 35785.997866671285,
        "timestamp": "2025-12-06T14:35:36.795324+00:00",
        "meta_object_name": "INTELSAT 32E (IS-32E)",
        "meta_object_id": "2017-007B",
        "meta_epoch": "2025-12-06T06:36:45.108576",
        "meta_mean_motion": 1.00271058,
        "meta_eccentricity": 3.086e-05,
        "meta_inclination": 0.0329,
        "meta_ra_of_asc_node": 72.8908,
        "meta_arg_of_pericenter": 253.9688,
        "meta_mean_anomaly": 164.467,
        "meta_ephemeris_type": 0,
        "meta_classification_type": "U",
        "meta_norad_cat_id": 41945,
        "meta_element_set_no": 999,
        "meta_rev_at_epoch": 3229,
        "meta_bstar": 0,
        "meta_mean_motion_dot": -2.61e-06,
        "meta_mean_motion_ddot": 0,
        "tle_line1": "1 41945U 17007B   25340.27552209 -.00000261  00000+0  00000+0 0  9992",
        "tle_line2": "2 41945   0.0329  72.8908 0000308 253.9688 164.4670  1.00271058 32293"
      },
      "geometry": {
        "type": "Point",
        "coordinates": [
          -108.6459939635975,
          -0.02039026921888515
        ]
      }
    },
    {
      "type": "Feature",
      "properties": {
        "norad_id": 42818,
        "name": "INTELSAT 35E (IS-35E)",
        "group": "intelsat",
        "lat": -0.04107701081663145,
        "lon": -99.94806460394969,
        "alt_km": 35776.315572297586,
        "timestamp": "2025-12-06T14:35:36.795336+00:00",
        "meta_object_name": "INTELSAT 35E (IS-35E)",
        "meta_object_id": "2017-041A",
        "meta_epoch": "2025-12-06T06:39:14.870016",
        "meta_mean_motion": 1.00270151,
        "meta_eccentricity": 0.0002421,
        "meta_inclination": 0.0163,
        "meta_ra_of_asc_node": 347.903,
        "meta_arg_of_pericenter": 272.0333,
        "meta_mean_anomaly": 240.7117,
        "meta_ephemeris_type": 0,
        "meta_classification_type": "U",
        "meta_norad_cat_id": 42818,
        "meta_element_set_no": 999,
        "meta_rev_at_epoch": 3088,
        "meta_bstar": 0,
        "meta_mean_motion_dot": -2.3e-06,
        "meta_mean_motion_ddot": 0,
        "tle_line1": "1 42818U 17041A   25340.27725544 -.00000230  00000+0  00000+0 0  9990",
        "tle_line2": "2 42818   0.0163 347.9030 0002421 272.0333 240.7117  1.00270151 30888"
      },
      "geometry": {
        "type": "Point",
        "coordinates": [
          -99.94806460394969,
          -0.04107701081663145
        ]
      }
    },
    {
      "type": "Feature",
      "properties": {
        "norad_id": 42950,
        "name": "INTELSAT 37E (IS-37E)",
        "group": "intelsat",
        "lat": -0.034133850211625565,
        "lon": -83.4432249351553,
        "alt_km": 35772.919894868865,
        "timestamp": "2025-12-06T14:35:36.795348+00:00",
        "meta_object_name": "INTELSAT 37E (IS-37E)",
        "meta_object_id": "2017-059A",
        "meta_epoch": "2025-12-06T06:43:51.928032",
        "meta_mean_motion": 1.00270752,
        "meta_eccentricity": 0.000349,
        "meta_inclination": 0.015,
        "meta_ra_of_asc_node": 333.2584,
        "meta_arg_of_pericenter": 278.8244,
        "meta_mean_anomaly": 266.2103,
        "meta_ephemeris_type": 0,
        "meta_classification_type": "U",
        "meta_norad_cat_id": 42950,
        "meta_element_set_no": 999,
        "meta_rev_at_epoch": 3013,
        "meta_bstar": 0,
        "meta_mean_motion_dot": -1.33e-06,
        "meta_mean_motion_ddot": 0,
        "tle_line1": "1 42950U 17059A   25340.28046213 -.00000133  00000+0  00000+0 0  9998",
        "tle_line2": "2 42950   0.0150 333.2584 0003490 278.8244 266.2103  1.00270752 30138"
      },
      "geometry": {
        "type": "Point",
        "coordinates": [
          -83.4432249351553,
          -0.034133850211625565
        ]
      }
    },
    {
      "type": "Feature",
      "properties": {
        "norad_id": 43632,
        "name": "AZERSPACE 2 (IS-38)",
        "group": "intelsat",
        "lat": -0.0016580945088814137,
        "lon": -20.33159081085358,
        "alt_km": 35785.484583589394,
        "timestamp": "2025-12-06T14:35:36.795359+00:00",
        "meta_object_name": "AZERSPACE 2 (IS-38)",
        "meta_object_id": "2018-074A",
        "meta_epoch": "2025-12-06T05:46:38.731584",
        "meta_mean_motion": 1.0027024,
        "meta_eccentricity": 0.00016364,
        "meta_inclination": 0.0015,
        "meta_ra_of_asc_node": 351.9319,
        "meta_arg_of_pericenter": 265.925,
        "meta_mean_anomaly": 309.2023,
        "meta_ephemeris_type": 0,
        "meta_classification_type": "U",
        "meta_norad_cat_id": 43632,
        "meta_element_set_no": 999,
        "meta_rev_at_epoch": 2651,
        "meta_bstar": 0,
        "meta_mean_motion_dot": 1.45e-06,
        "meta_mean_motion_ddot": 0,
        "tle_line1": "1 43632U 18074A   25340.24072606  .00000145  00000+0  00000+0 0  9997",
        "tle_line2": "2 43632   0.0015 351.9319 0001636 265.9250 309.2023  1.00270240 26511"
      },
      "geometry": {
        "type": "Point",
        "coordinates": [
          -20.33159081085358,
          -0.0016580945088814137
        ]
      }
    },
    {
      "type": "Feature",
      "properties": {
        "norad_id": 43633,
        "name": "HORIZONS-3E",
        "group": "intelsat",
        "lat": 0.0013159296815067297,
        "lon": 103.55572861817757,
        "alt_km": 35791.8240716846,
        "timestamp": "2025-12-06T14:35:36.795371+00:00",
        "meta_object_name": "HORIZONS-3E",
        "meta_object_id": "2018-074B",
        "meta_epoch": "2025-12-06T04:02:38.488128",
        "meta_mean_motion": 1.00269385,
        "meta_eccentricity": 0.00012044,
        "meta_inclination": 0.0412,
        "meta_ra_of_asc_node": 188.1076,
        "meta_arg_of_pericenter": 91.4759,
        "meta_mean_anomaly": 25.3122,
        "meta_ephemeris_type": 0,
        "meta_classification_type": "U",
        "meta_norad_cat_id": 43633,
        "meta_element_set_no": 999,
        "meta_rev_at_epoch": 2640,
        "meta_bstar": 0,
        "meta_mean_motion_dot": -2.2e-07,
        "meta_mean_motion_ddot": 0,
        "tle_line1": "1 43633U 18074B   25340.16850102 -.00000022  00000+0  00000+0 0  9999",
        "tle_line2": "2 43633   0.0412 188.1076 0001204  91.4759  25.3122  1.00269385 26402"
      },
      "geometry": {
        "type": "Point",
        "coordinates": [
          103.55572861817757,
          0.0013159296815067297
        ]
      }
    }
  ]
}